start=new Date('2023-01-02T00:00:00.000Z').valueOf();
sats=[{"TLE_LINE2":"2 53183  53.2134 310.6015 0001990  41.0069 319.1072 15.08816429 26886","LAUNCH_DATE":"2022-07-17","INCLINATION":"53.2134","RA_OF_ASC_NODE":"310.6015","OBJECT_NAME":"STARLINK-4268","TIME_SYSTEM":"UTC","EPOCH":"2023-01-01T13:28:02.899488","MEAN_MOTION_DDOT":"0.0000000000000","TLE_LINE1":"1 53183U 22083BD  23001.56114467 -.00006571  00000-0 -39538-3 0  9997","DECAY_DATE":null,"SITE":"AFETR","BSTAR":"-0.00039538000000","COUNTRY_CODE":"US","OBJECT_TYPE":"PAYLOAD","GP_ID":"221965087","MEAN_ANOMALY":"319.1072","OBJECT_ID":"2022-083BD","ECCENTRICITY":"0.00019900","REV_AT_EPOCH":"2688","MEAN_MOTION":"15.08816429","ARG_OF_PERICENTER":"41.0069","FILE":"3728878","APOAPSIS":"541.194","REF_FRAME":"TEME","RCS_SIZE":"LARGE","CLASSIFICATION_TYPE":"U","CENTER_NAME":"EARTH","NORAD_CAT_ID":"53183","MEAN_MOTION_DOT":"-0.00006571","MEAN_ELEMENT_THEORY":"SGP4","ELEMENT_SET_NO":"999","EPHEMERIS_TYPE":"0","PERIAPSIS":"538.441","PERIOD":"95.439","SEMIMAJOR_AXIS":"6917.952"},{"ELEMENT_SET_NO":"999","MEAN_ELEMENT_THEORY":"SGP4","MEAN_MOTION_DOT":"-0.00002602","CENTER_NAME":"EARTH","NORAD_CAT_ID":"53184","CLASSIFICATION_TYPE":"U","SEMIMAJOR_AXIS":"6917.910","PERIOD":"95.438","EPHEMERIS_TYPE":"0","PERIAPSIS":"538.504","APOAPSIS":"541.047","FILE":"3728952","ARG_OF_PERICENTER":"45.5859","MEAN_MOTION":"15.08830168","RCS_SIZE":"LARGE","REF_FRAME":"TEME","TLE_LINE1":"1 53184U 22083BE  23001.82740864 -.00002602  00000-0 -14545-3 0  9995","DECAY_DATE":null,"SITE":"AFETR","BSTAR":"-0.00014545000000","MEAN_MOTION_DDOT":"0.0000000000000","EPOCH":"2023-01-01T19:51:28.106496","REV_AT_EPOCH":"2637","ECCENTRICITY":"0.00018380","OBJECT_ID":"2022-083BE","MEAN_ANOMALY":"314.5283","GP_ID":"221992380","OBJECT_TYPE":"PAYLOAD","COUNTRY_CODE":"US","LAUNCH_DATE":"2022-07-17","TLE_LINE2":"2 53184  53.2159 303.9879 0001838  45.5859 314.5283 15.08830168 26377","TIME_SYSTEM":"UTC","OBJECT_NAME":"STARLINK-4257","RA_OF_ASC_NODE":"303.9879","INCLINATION":"53.2159"},{"TLE_LINE1":"1 53189U 22084A   23001.76381245 -.00005469  00000-0 -42172-3 0  9999","SITE":"AFWTR","DECAY_DATE":null,"BSTAR":"-0.00042172000000","EPOCH":"2023-01-01T18:19:53.395680","MEAN_MOTION_DDOT":"0.0000000000000","OBJECT_ID":"2022-084A","ECCENTRICITY":"0.00018500","REV_AT_EPOCH":"2551","COUNTRY_CODE":"US","OBJECT_TYPE":"PAYLOAD","GP_ID":"221992605","MEAN_ANOMALY":"315.7349","LAUNCH_DATE":"2022-07-22","TLE_LINE2":"2 53189  97.6536  65.2187 0001850  44.4024 315.7349 15.01243784 25515","TIME_SYSTEM":"UTC","INCLINATION":"97.6536","RA_OF_ASC_NODE":"65.2187","OBJECT_NAME":"STARLINK-4391","MEAN_MOTION_DOT":"-0.00005469","MEAN_ELEMENT_THEORY":"SGP4","ELEMENT_SET_NO":"999","CLASSIFICATION_TYPE":"U","NORAD_CAT_ID":"53189","CENTER_NAME":"EARTH","SEMIMAJOR_AXIS":"6941.197","EPHEMERIS_TYPE":"0","PERIAPSIS":"561.778","PERIOD":"95.920","MEAN_MOTION":"15.01243784","ARG_OF_PERICENTER":"44.4024","FILE":"3728952","APOAPSIS":"564.346","RCS_SIZE":"LARGE","REF_FRAME":"TEME"},{"MEAN_MOTION_DDOT":"0.0000000000000","EPOCH":"2023-01-01T22:14:52.003392","TLE_LINE1":"1 53190U 22084B   23001.92699078  .00000054  00000-0  88122-5 0  9995","DECAY_DATE":null,"SITE":"AFWTR","BSTAR":"0.00000881220000","MEAN_ANOMALY":"302.0910","GP_ID":"221966337","OBJECT_TYPE":"PAYLOAD","COUNTRY_CODE":"US","REV_AT_EPOCH":"2524","ECCENTRICITY":"0.00017360","OBJECT_ID":"2022-084B","TLE_LINE2":"2 53190  97.6601  65.3581 0001736  58.0482 302.0910 15.01258633 25243","LAUNCH_DATE":"2022-07-22","OBJECT_NAME":"STARLINK-4332","RA_OF_ASC_NODE":"65.3581","INCLINATION":"97.6601","TIME_SYSTEM":"UTC","NORAD_CAT_ID":"53190","CENTER_NAME":"EARTH","CLASSIFICATION_TYPE":"U","ELEMENT_SET_NO":"999","MEAN_ELEMENT_THEORY":"SGP4","MEAN_MOTION_DOT":"0.00000054","PERIOD":"95.920","EPHEMERIS_TYPE":"0","PERIAPSIS":"561.811","SEMIMAJOR_AXIS":"6941.151","APOAPSIS":"564.221","FILE":"3728927","ARG_OF_PERICENTER":"58.0482","MEAN_MOTION":"15.01258633","REF_FRAME":"TEME","RCS_SIZE":"LARGE"},{"COUNTRY_CODE":"US","GP_ID":"221991704","OBJECT_TYPE":"PAYLOAD","MEAN_ANOMALY":"298.7501","OBJECT_ID":"2022-084C","ECCENTRICITY":"0.00018980","REV_AT_EPOCH":"2485","EPOCH":"2023-01-01T21:23:51.247968","MEAN_MOTION_DDOT":"0.0000000000000","SITE":"AFWTR","TLE_LINE1":"1 53191U 22084C   23001.89156537 -.00000508  00000-0 -34957-4 0  9992","DECAY_DATE":null,"BSTAR":"-0.00003495700000","INCLINATION":"97.6566","RA_OF_ASC_NODE":"65.3218","OBJECT_NAME":"STARLINK-4369","TIME_SYSTEM":"UTC","TLE_LINE2":"2 53191  97.6566  65.3218 0001898  61.3914 298.7501 15.01258131 24853","LAUNCH_DATE":"2022-07-22","PERIAPSIS":"561.700","EPHEMERIS_TYPE":"0","PERIOD":"95.920","SEMIMAJOR_AXIS":"6941.153","CLASSIFICATION_TYPE":"U","NORAD_CAT_ID":"53191","CENTER_NAME":"EARTH","MEAN_MOTION_DOT":"-0.00000508","MEAN_ELEMENT_THEORY":"SGP4","ELEMENT_SET_NO":"999","REF_FRAME":"TEME","RCS_SIZE":"LARGE","MEAN_MOTION":"15.01258131","ARG_OF_PERICENTER":"61.3914","FILE":"3728952","APOAPSIS":"564.335"},{"MEAN_MOTION_DOT":"0.00000380","MEAN_ELEMENT_THEORY":"SGP4","ELEMENT_SET_NO":"999","CLASSIFICATION_TYPE":"U","CENTER_NAME":"EARTH","NORAD_CAT_ID":"53192","SEMIMAJOR_AXIS":"6941.175","EPHEMERIS_TYPE":"0","PERIAPSIS":"562.012","PERIOD":"95.920","MEAN_MOTION":"15.01250754","ARG_OF_PERICENTER":"84.6939","FILE":"3728952","APOAPSIS":"564.068","RCS_SIZE":"LARGE","REF_FRAME":"TEME","TLE_LINE1":"1 53192U 22084D   23001.88972042  .00000380  00000-0  34167-4 0  9998","DECAY_DATE":null,"BSTAR":"0.00003416700000","SITE":"AFWTR","EPOCH":"2023-01-01T21:21:11.844288","MEAN_MOTION_DDOT":"0.0000000000000","OBJECT_ID":"2022-084D","ECCENTRICITY":"0.00014810","REV_AT_EPOCH":"2552","COUNTRY_CODE":"US","OBJECT_TYPE":"PAYLOAD","GP_ID":"221992830","MEAN_ANOMALY":"275.4455","LAUNCH_DATE":"2022-07-22","TLE_LINE2":"2 53192  97.6565  65.3184 0001481  84.6939 275.4455 15.01250754 25526","TIME_SYSTEM":"UTC","INCLINATION":"97.6565","RA_OF_ASC_NODE":"65.3184","OBJECT_NAME":"STARLINK-4375"},{"EPHEMERIS_TYPE":"0","PERIAPSIS":"561.876","PERIOD":"95.920","SEMIMAJOR_AXIS":"6941.176","CLASSIFICATION_TYPE":"U","NORAD_CAT_ID":"53193","CENTER_NAME":"EARTH","MEAN_ELEMENT_THEORY":"SGP4","MEAN_MOTION_DOT":"0.00001022","ELEMENT_SET_NO":"999","REF_FRAME":"TEME","RCS_SIZE":"LARGE","ARG_OF_PERICENTER":"81.5784","MEAN_MOTION":"15.01250591","APOAPSIS":"564.206","FILE":"3728952","COUNTRY_CODE":"US","MEAN_ANOMALY":"278.5630","GP_ID":"221993055","OBJECT_TYPE":"PAYLOAD","ECCENTRICITY":"0.00016780","OBJECT_ID":"2022-084E","REV_AT_EPOCH":"2587","MEAN_MOTION_DDOT":"0.0000000000000","EPOCH":"2023-01-01T21:29:11.718528","TLE_LINE1":"1 53193U 22084E   23001.89527452  .00001022  00000-0  84155-4 0  9997","DECAY_DATE":null,"SITE":"AFWTR","BSTAR":"0.00008415500000","INCLINATION":"97.6551","OBJECT_NAME":"STARLINK-4351","RA_OF_ASC_NODE":"65.3312","TIME_SYSTEM":"UTC","TLE_LINE2":"2 53193  97.6551  65.3312 0001678  81.5784 278.5630 15.01250591 25873","LAUNCH_DATE":"2022-07-22"},{"RA_OF_ASC_NODE":"65.3266","OBJECT_NAME":"STARLINK-4382","INCLINATION":"97.6556","TIME_SYSTEM":"UTC","TLE_LINE2":"2 53194  97.6556  65.3266 0001923  54.9833 305.1572 15.01253342 24855","LAUNCH_DATE":"2022-07-22","OBJECT_TYPE":"PAYLOAD","GP_ID":"221991479","MEAN_ANOMALY":"305.1572","COUNTRY_CODE":"US","REV_AT_EPOCH":"2485","OBJECT_ID":"2022-084F","ECCENTRICITY":"0.00019230","EPOCH":"2023-01-01T21:26:32.386560","MEAN_MOTION_DDOT":"0.0000000000000","TLE_LINE1":"1 53194U 22084F   23001.89343040 -.00001916  00000-0 -14460-3 0  9992","BSTAR":"-0.00014460000000","DECAY_DATE":null,"SITE":"AFWTR","REF_FRAME":"TEME","RCS_SIZE":"LARGE","FILE":"3728952","APOAPSIS":"564.367","MEAN_MOTION":"15.01253342","ARG_OF_PERICENTER":"54.9833","PERIOD":"95.920","PERIAPSIS":"561.698","EPHEMERIS_TYPE":"0","SEMIMAJOR_AXIS":"6941.167","CENTER_NAME":"EARTH","NORAD_CAT_ID":"53194","CLASSIFICATION_TYPE":"U","ELEMENT_SET_NO":"999","MEAN_MOTION_DOT":"-0.00001916","MEAN_ELEMENT_THEORY":"SGP4"},{"MEAN_ELEMENT_THEORY":"SGP4","MEAN_MOTION_DOT":"-0.00005452","ELEMENT_SET_NO":"999","CLASSIFICATION_TYPE":"U","NORAD_CAT_ID":"53195","CENTER_NAME":"EARTH","SEMIMAJOR_AXIS":"6943.694","PERIAPSIS":"565.209","EPHEMERIS_TYPE":"0","PERIOD":"95.972","ARG_OF_PERICENTER":"227.7619","MEAN_MOTION":"15.00434038","APOAPSIS":"565.909","FILE":"3728952","RCS_SIZE":"LARGE","REF_FRAME":"TEME","TLE_LINE1":"1 53195U 22084G   23001.80745295 -.00005452  00000-0 -42941-3 0  9996","SITE":"AFWTR","DECAY_DATE":null,"BSTAR":"-0.00042941000000","MEAN_MOTION_DDOT":"0.0000000000000","EPOCH":"2023-01-01T19:22:43.934880","ECCENTRICITY":"0.00005040","OBJECT_ID":"2022-084G","REV_AT_EPOCH":"2551","COUNTRY_CODE":"US","MEAN_ANOMALY":"132.3562","OBJECT_TYPE":"PAYLOAD","GP_ID":"221992155","LAUNCH_DATE":"2022-07-22","TLE_LINE2":"2 53195  97.6522  65.2901 0000504 227.7619 132.3562 15.00434038 25515","TIME_SYSTEM":"UTC","INCLINATION":"97.6522","OBJECT_NAME":"STARLINK-4404","RA_OF_ASC_NODE":"65.2901"},{"EPHEMERIS_TYPE":"0","PERIAPSIS":"561.882","PERIOD":"95.920","SEMIMAJOR_AXIS":"6941.180","CLASSIFICATION_TYPE":"U","NORAD_CAT_ID":"53196","CENTER_NAME":"EARTH","MEAN_ELEMENT_THEORY":"SGP4","MEAN_MOTION_DOT":"0.00000352","ELEMENT_SET_NO":"999","REF_FRAME":"TEME","RCS_SIZE":"LARGE","ARG_OF_PERICENTER":"73.4586","MEAN_MOTION":"15.01249097","APOAPSIS":"564.209","FILE":"3728952","COUNTRY_CODE":"US","MEAN_ANOMALY":"286.6822","GP_ID":"221992381","OBJECT_TYPE":"PAYLOAD","ECCENTRICITY":"0.00016760","OBJECT_ID":"2022-084H","REV_AT_EPOCH":"2551","MEAN_MOTION_DDOT":"0.0000000000000","EPOCH":"2023-01-01T21:21:32.532768","TLE_LINE1":"1 53196U 22084H   23001.88995987  .00000352  00000-0  31988-4 0  9992","DECAY_DATE":null,"BSTAR":"0.00003198800000","SITE":"AFWTR","INCLINATION":"97.6553","OBJECT_NAME":"STARLINK-4407","RA_OF_ASC_NODE":"65.3193","TIME_SYSTEM":"UTC","TLE_LINE2":"2 53196  97.6553  65.3193 0001676  73.4586 286.6822 15.01249097 25516","LAUNCH_DATE":"2022-07-22"}];
